ZHUHAI-1 01 (CAS-4A)    
1 42761U 17034D   25172.68731051  .00055949  00000+0  52183-3 0  9996
2 42761  43.0100 246.6543 0021432  15.7070 344.4457 15.66204285444521
CARTOSAT-2E             
1 42767U 17036C   25172.83299509  .00004299  00000+0  20758-3 0  9993
2 42767  97.4782 232.3922 0004292 116.1923 243.9754 15.19186239443435
FORMOSAT-5              
1 42920U 17049A   25172.85180013  .00000121  00000+0  41701-4 0  9991
2 42920  98.2591 250.4774 0012328 104.7039 255.5524 14.50884060414421
SENTINEL-5P             
1 42969U 17064A   25172.80885463  .00000033  00000+0  36589-4 0  9997
2 42969  98.7588 113.1651 0001133  95.2417 264.8888 14.19528675398430
SKYSAT-C11              
1 42987U 17068A   25172.61922597  .00011375  00000+0  28881-3 0  9996
2 42987  97.3942 307.2365 0001630 100.1878 259.9552 15.39820660427467
SKYSAT-C10              
1 42988U 17068B   25172.61663739  .00006565  00000+0  21990-3 0  9996
2 42988  97.4054 303.3624 0002018  96.4011 263.7461 15.31275840427148
SKYSAT-C9               
1 42989U 17068C   25172.32458180  .00007288  00000+0  22305-3 0  9991
2 42989  97.3984 301.8607 0011156  30.0643 330.1238 15.34075565427339
SKYSAT-C8               
1 42990U 17068D   25172.32135761  .00006828  00000+0  22409-3 0  9994
2 42990  97.4078 302.0180 0000945 114.4682 245.6658 15.31921905427004
SKYSAT-C7               
1 42991U 17068E   25172.62330690  .00005527  00000+0  17817-3 0  9998
2 42991  97.4081 303.4644 0003957 358.0185   2.1040 15.32581021427125
SKYSAT-C6               
1 42992U 17068F   25172.80453803  .00006330  00000+0  21969-3 0  9997
2 42992  97.4119 304.2951 0001695 341.9996  18.1184 15.30136624427158
CARTOSAT-2F             
1 43111U 18004A   25172.80142746  .00003548  24497-8  16874-3 0  9995
2 43111  97.4542 232.9572 0002454  94.6591 265.4924 15.19240511387168
GAOFEN-1 02             
1 43259U 18031A   25172.83229256  .00000585  00000+0  90709-4 0  9996
2 43259  97.7720 233.6862 0006770  81.4304 278.7673 14.76609807389522
GAOFEN-1 03             
1 43260U 18031B   25172.81048164  .00000572  00000+0  88915-4 0  9995
2 43260  97.7713 233.5585 0007076 109.8835 250.3139 14.76590763389513
GAOFEN-1 04             
1 43262U 18031D   25172.85381947  .00000584  00000+0  90642-4 0  9993
2 43262  97.7723 233.7482 0003701 103.1470 257.0154 14.76589538389516
