[
  {
    "OBJECT_NAME": "ZHUHAI-1 01 (CAS-4A)",
    "OBJECT_ID": "2017-034D",
    "EPOCH": "2025-06-21T16:29:43.628064",
    "MEAN_MOTION": 15.66204285,
    "ECCENTRICITY": 0.0021432,
    "INCLINATION": 43.01,
    "RA_OF_ASC_NODE": 246.6543,
    "ARG_OF_PERICENTER": 15.707,
    "MEAN_ANOMALY": 344.4457,
    "EPHEMERIS_TYPE": 0,
    "CLASSIFICATION_TYPE": "U",
    "NORAD_CAT_ID": 42761,
    "ELEMENT_SET_NO": 999,
    "REV_AT_EPOCH": 44452,
    "BSTAR": 0.00052183,
    "MEAN_MOTION_DOT": 0.00055949,
    "MEAN_MOTION_DDOT": 0
  },
  {
    "OBJECT_NAME": "CARTOSAT-2E",
    "OBJECT_ID": "2017-036C",
    "EPOCH": "2025-06-21T19:59:30.775776",
    "MEAN_MOTION": 15.19186239,
    "ECCENTRICITY": 0.0004292,
    "INCLINATION": 97.4782,
    "RA_OF_ASC_NODE": 232.3922,
    "ARG_OF_PERICENTER": 116.1923,
    "MEAN_ANOMALY": 243.9754,
    "EPHEMERIS_TYPE": 0,
    "CLASSIFICATION_TYPE": "U",
    "NORAD_CAT_ID": 42767,
    "ELEMENT_SET_NO": 999,
    "REV_AT_EPOCH": 44343,
    "BSTAR": 0.00020758,
    "MEAN_MOTION_DOT": 4.299e-05,
    "MEAN_MOTION_DDOT": 0
  },
  {
    "OBJECT_NAME": "FORMOSAT-5",
    "OBJECT_ID": "2017-049A",
    "EPOCH": "2025-06-21T20:26:35.531232",
    "MEAN_MOTION": 14.5088406,
    "ECCENTRICITY": 0.0012328,
    "INCLINATION": 98.2591,
    "RA_OF_ASC_NODE": 250.4774,
    "ARG_OF_PERICENTER": 104.7039,
    "MEAN_ANOMALY": 255.5524,
    "EPHEMERIS_TYPE": 0,
    "CLASSIFICATION_TYPE": "U",
    "NORAD_CAT_ID": 42920,
    "ELEMENT_SET_NO": 999,
    "REV_AT_EPOCH": 41442,
    "BSTAR": 4.1701e-05,
    "MEAN_MOTION_DOT": 1.21e-06,
    "MEAN_MOTION_DDOT": 0
  },
  {
    "OBJECT_NAME": "SENTINEL-5P",
    "OBJECT_ID": "2017-064A",
    "EPOCH": "2025-06-21T19:24:45.040032",
    "MEAN_MOTION": 14.19528675,
    "ECCENTRICITY": 0.0001133,
    "INCLINATION": 98.7588,
    "RA_OF_ASC_NODE": 113.1651,
    "ARG_OF_PERICENTER": 95.2417,
    "MEAN_ANOMALY": 264.8888,
    "EPHEMERIS_TYPE": 0,
    "CLASSIFICATION_TYPE": "U",
    "NORAD_CAT_ID": 42969,
    "ELEMENT_SET_NO": 999,
    "REV_AT_EPOCH": 39843,
    "BSTAR": 3.6589e-05,
    "MEAN_MOTION_DOT": 3.3e-07,
    "MEAN_MOTION_DDOT": 0
  },
  {
    "OBJECT_NAME": "SKYSAT-C11",
    "OBJECT_ID": "2017-068A",
    "EPOCH": "2025-06-21T14:51:41.123808",
    "MEAN_MOTION": 15.3982066,
    "ECCENTRICITY": 0.000163,
    "INCLINATION": 97.3942,
    "RA_OF_ASC_NODE": 307.2365,
    "ARG_OF_PERICENTER": 100.1878,
    "MEAN_ANOMALY": 259.9552,
    "EPHEMERIS_TYPE": 0,
    "CLASSIFICATION_TYPE": "U",
    "NORAD_CAT_ID": 42987,
    "ELEMENT_SET_NO": 999,
    "REV_AT_EPOCH": 42746,
    "BSTAR": 0.00028881,
    "MEAN_MOTION_DOT": 0.00011375,
    "MEAN_MOTION_DDOT": 0
  },
  {
    "OBJECT_NAME": "SKYSAT-C10",
    "OBJECT_ID": "2017-068B",
    "EPOCH": "2025-06-21T14:47:57.470496",
    "MEAN_MOTION": 15.3127584,
    "ECCENTRICITY": 0.0002018,
    "INCLINATION": 97.4054,
    "RA_OF_ASC_NODE": 303.3624,
    "ARG_OF_PERICENTER": 96.4011,
    "MEAN_ANOMALY": 263.7461,
    "EPHEMERIS_TYPE": 0,
    "CLASSIFICATION_TYPE": "U",
    "NORAD_CAT_ID": 42988,
    "ELEMENT_SET_NO": 999,
    "REV_AT_EPOCH": 42714,
    "BSTAR": 0.0002199,
    "MEAN_MOTION_DOT": 6.565e-05,
    "MEAN_MOTION_DDOT": 0
  },
  {
    "OBJECT_NAME": "SKYSAT-C9",
    "OBJECT_ID": "2017-068C",
    "EPOCH": "2025-06-21T07:47:23.867520",
    "MEAN_MOTION": 15.34075565,
    "ECCENTRICITY": 0.0011156,
    "INCLINATION": 97.3984,
    "RA_OF_ASC_NODE": 301.8607,
    "ARG_OF_PERICENTER": 30.0643,
    "MEAN_ANOMALY": 330.1238,
    "EPHEMERIS_TYPE": 0,
    "CLASSIFICATION_TYPE": "U",
    "NORAD_CAT_ID": 42989,
    "ELEMENT_SET_NO": 999,
    "REV_AT_EPOCH": 42733,
    "BSTAR": 0.00022305,
    "MEAN_MOTION_DOT": 7.288e-05,
    "MEAN_MOTION_DDOT": 0
  },
  {
    "OBJECT_NAME": "SKYSAT-C8",
    "OBJECT_ID": "2017-068D",
    "EPOCH": "2025-06-21T07:42:45.297504",
    "MEAN_MOTION": 15.31921905,
    "ECCENTRICITY": 9.45e-05,
    "INCLINATION": 97.4078,
    "RA_OF_ASC_NODE": 302.018,
    "ARG_OF_PERICENTER": 114.4682,
    "MEAN_ANOMALY": 245.6658,
    "EPHEMERIS_TYPE": 0,
    "CLASSIFICATION_TYPE": "U",
    "NORAD_CAT_ID": 42990,
    "ELEMENT_SET_NO": 999,
    "REV_AT_EPOCH": 42700,
    "BSTAR": 0.00022409,
    "MEAN_MOTION_DOT": 6.828e-05,
    "MEAN_MOTION_DDOT": 0
  },
  {
    "OBJECT_NAME": "SKYSAT-C7",
    "OBJECT_ID": "2017-068E",
    "EPOCH": "2025-06-21T14:57:33.716160",
    "MEAN_MOTION": 15.32581021,
    "ECCENTRICITY": 0.0003957,
    "INCLINATION": 97.4081,
    "RA_OF_ASC_NODE": 303.4644,
    "ARG_OF_PERICENTER": 358.0185,
    "MEAN_ANOMALY": 2.104,
    "EPHEMERIS_TYPE": 0,
    "CLASSIFICATION_TYPE": "U",
    "NORAD_CAT_ID": 42991,
    "ELEMENT_SET_NO": 999,
    "REV_AT_EPOCH": 42712,
    "BSTAR": 0.00017817,
    "MEAN_MOTION_DOT": 5.527e-05,
    "MEAN_MOTION_DDOT": 0
  },
  {
    "OBJECT_NAME": "SKYSAT-C6",
    "OBJECT_ID": "2017-068F",
    "EPOCH": "2025-06-21T19:18:32.085792",
    "MEAN_MOTION": 15.30136624,
    "ECCENTRICITY": 0.0001695,
    "INCLINATION": 97.4119,
    "RA_OF_ASC_NODE": 304.2951,
    "ARG_OF_PERICENTER": 341.9996,
    "MEAN_ANOMALY": 18.1184,
    "EPHEMERIS_TYPE": 0,
    "CLASSIFICATION_TYPE": "U",
    "NORAD_CAT_ID": 42992,
    "ELEMENT_SET_NO": 999,
    "REV_AT_EPOCH": 42715,
    "BSTAR": 0.00021969,
    "MEAN_MOTION_DOT": 6.33e-05,
    "MEAN_MOTION_DDOT": 0
  },
  {
    "OBJECT_NAME": "CARTOSAT-2F",
    "OBJECT_ID": "2018-004A",
    "EPOCH": "2025-06-21T19:14:03.332544",
    "MEAN_MOTION": 15.19240511,
    "ECCENTRICITY": 0.0002454,
    "INCLINATION": 97.4542,
    "RA_OF_ASC_NODE": 232.9572,
    "ARG_OF_PERICENTER": 94.6591,
    "MEAN_ANOMALY": 265.4924,
    "EPHEMERIS_TYPE": 0,
    "CLASSIFICATION_TYPE": "U",
    "NORAD_CAT_ID": 43111,
    "ELEMENT_SET_NO": 999,
    "REV_AT_EPOCH": 38716,
    "BSTAR": 0.00016874,
    "MEAN_MOTION_DOT": 3.548e-05,
    "MEAN_MOTION_DDOT": 2.4497e-09
  },
  {
    "OBJECT_NAME": "GAOFEN-1 02",
    "OBJECT_ID": "2018-031A",
    "EPOCH": "2025-06-21T19:58:30.077184",
    "MEAN_MOTION": 14.76609807,
    "ECCENTRICITY": 0.000677,
    "INCLINATION": 97.772,
    "RA_OF_ASC_NODE": 233.6862,
    "ARG_OF_PERICENTER": 81.4304,
    "MEAN_ANOMALY": 278.7673,
    "EPHEMERIS_TYPE": 0,
    "CLASSIFICATION_TYPE": "U",
    "NORAD_CAT_ID": 43259,
    "ELEMENT_SET_NO": 999,
    "REV_AT_EPOCH": 38952,
    "BSTAR": 9.0709e-05,
    "MEAN_MOTION_DOT": 5.85e-06,
    "MEAN_MOTION_DDOT": 0
  },
  {
    "OBJECT_NAME": "GAOFEN-1 03",
    "OBJECT_ID": "2018-031B",
    "EPOCH": "2025-06-21T19:27:05.613696",
    "MEAN_MOTION": 14.76590763,
    "ECCENTRICITY": 0.0007076,
    "INCLINATION": 97.7713,
    "RA_OF_ASC_NODE": 233.5585,
    "ARG_OF_PERICENTER": 109.8835,
    "MEAN_ANOMALY": 250.3139,
    "EPHEMERIS_TYPE": 0,
    "CLASSIFICATION_TYPE": "U",
    "NORAD_CAT_ID": 43260,
    "ELEMENT_SET_NO": 999,
    "REV_AT_EPOCH": 38951,
    "BSTAR": 8.8915e-05,
    "MEAN_MOTION_DOT": 5.72e-06,
    "MEAN_MOTION_DDOT": 0
  },
  {
    "OBJECT_NAME": "GAOFEN-1 04",
    "OBJECT_ID": "2018-031D",
    "EPOCH": "2025-06-21T20:29:30.002208",
    "MEAN_MOTION": 14.76589538,
    "ECCENTRICITY": 0.0003701,
    "INCLINATION": 97.7723,
    "RA_OF_ASC_NODE": 233.7482,
    "ARG_OF_PERICENTER": 103.147,
    "MEAN_ANOMALY": 257.0154,
    "EPHEMERIS_TYPE": 0,
    "CLASSIFICATION_TYPE": "U",
    "NORAD_CAT_ID": 43262,
    "ELEMENT_SET_NO": 999,
    "REV_AT_EPOCH": 38951,
    "BSTAR": 9.0642e-05,
    "MEAN_MOTION_DOT": 5.84e-06,
    "MEAN_MOTION_DDOT": 0
  }
]